OBJECT_NAME,OBJECT_ID,EPOCH,MEAN_MOTION,ECCENTRICITY,INCLINATION,RA_OF_ASC_NODE,ARG_OF_PERICENTER,MEAN_ANOMALY,EPHEMERIS_TYPE,CLASSIFICATION_TYPE,NORAD_CAT_ID,ELEMENT_SET_NO,REV_AT_EPOCH,BSTAR,MEAN_MOTION_DOT,MEAN_MOTION_DDOT
DMSP 5D-3 F16 (USA 172),2003-048A,2026-06-27T05:04:30.081792,14.14483750,.0008103,98.9887,202.1060,115.1793,317.5043,0,U,28054,999,17090,.36332E-4,.24E-6,0
METEOSAT-9 (MSG-2),2005-049B,2026-06-26T19:36:46.275264,1.00277622,.00019886,9.3827,54.0739,356.9985,203.7944,0,U,28912,999,709,0,.126E-5,0
DMSP 5D-3 F17 (USA 191),2006-050A,2026-06-27T05:03:24.168096,14.14994166,.0010769,98.7378,184.5757,33.1859,326.9988,0,U,29522,999,1384,.51819E-4,.57E-6,0
FENGYUN 3A,2008-026A,2026-06-27T03:02:07.259424,14.19573165,.0009871,98.6885,118.7739,98.0765,262.1531,0,U,32958,999,93681,.50566E-4,.63E-6,0
GOES 14,2009-033A,2026-06-27T00:27:51.585984,1.00108179,.0002251,1.7153,82.9344,19.2331,316.0256,0,U,35491,999,668,0,-.314E-5,0
DMSP 5D-3 F18 (USA 210),2009-057A,2026-06-27T04:23:07.782144,14.14902243,.0010209,98.9041,158.9303,218.1903,141.8548,0,U,35951,999,86100,.14355E-3,.233E-5,0
EWS-G2 (GOES 15),2010-008A,2026-06-27T02:32:32.985312,1.00268050,.0005346,1.3045,82.7132,43.3637,250.8305,0,U,36411,999,5973,0,.31E-6,0
COMS 1,2010-032A,2026-06-26T22:58:54.747840,0.99166709,.0011918,4.8297,75.2434,12.9181,206.1281,0,U,36744,999,5118,0,.41E-6,0
FENGYUN 3B,2010-059A,2026-06-27T05:01:28.269408,14.14843393,.0022492,98.9620,224.2663,155.7581,290.6820,0,U,37214,999,80884,.11444E-3,.176E-5,0
SUOMI NPP,2011-061A,2026-06-27T05:00:21.834720,14.19519329,.0000958,98.7954,119.0162,337.1617,22.9516,0,U,37849,999,75986,.44305E-4,.49E-6,0
METEOSAT-10 (MSG-3),2012-035B,2026-06-27T00:31:52.324032,1.00268678,.0001757,4.6945,60.9773,9.1573,213.1506,0,U,38552,999,5095,0,.1E-7,0
METOP-B,2012-049A,2026-06-27T04:26:36.850272,14.21441926,.0001611,98.6500,229.4847,349.7189,10.3955,0,U,38771,999,71468,.67087E-4,.103E-5,0
INSAT-3D,2013-038B,2026-06-27T00:41:38.784768,1.00271756,.0001148,1.9512,82.4280,2.7760,329.8733,0,U,39216,999,4717,0,-.329E-5,0
FENGYUN 3C,2013-052A,2026-06-27T05:17:56.141952,14.15757210,.0014651,98.4983,151.6351,359.4879,0.6278,0,U,39260,999,65998,.52348E-4,.61E-6,0
METEOR-M 2,2014-037A,2026-06-27T05:04:22.226304,14.21464558,.0006268,98.5111,153.5947,19.1342,341.0070,0,U,40069,999,62074,.16394E-3,.316E-5,0
HIMAWARI-8,2014-060A,2026-06-26T21:46:34.136256,1.00274633,.0001136,0.0121,315.2307,135.4222,291.6652,0,U,40267,999,4285,0,-.264E-5,0
FENGYUN 2G,2014-090A,2026-06-26T16:26:53.974752,1.00269056,.00035792,5.6634,72.7057,150.4754,37.9966,0,U,40367,999,4209,0,-.296E-5,0
METEOSAT-11 (MSG-4),2015-034A,2026-06-27T03:59:48.694848,1.00266192,.0002243,3.2255,71.0480,347.4242,286.1812,0,U,40732,999,731,0,.7E-6,0
ELEKTRO-L 2,2015-074A,2026-06-25T22:47:48.794784,1.00271163,.00007276,6.7170,70.4166,286.6211,244.4527,0,U,41105,999,3859,0,-.113E-5,0
SENTINEL-3A,2016-011A,2026-06-27T04:12:00.933984,14.26735229,.0001436,98.6246,245.4151,96.7964,263.3380,0,U,41335,999,53948,.58521E-4,.98E-6,0
INSAT-3DR,2016-054A,2026-06-27T02:35:32.698176,1.00272424,.0010053,0.1309,86.1866,186.7850,115.1092,0,U,41752,999,3591,0,-.65E-6,0
HIMAWARI-9,2016-064A,2026-06-26T23:29:14.341344,1.00271011,.0001158,0.0171,44.9539,68.4076,294.8031,0,U,41836,999,3530,0,-.263E-5,0
GOES 16,2016-071A,2026-06-27T03:27:19.339776,1.00272083,.000059,0.3658,85.5266,9.3112,127.5560,0,U,41866,999,3520,0,-.8E-6,0
FENGYUN 4A,2016-077A,2026-06-26T13:08:30.580224,1.00264621,.0008229,2.3469,80.1884,152.1316,3.0696,0,U,41882,999,3502,0,-.348E-5,0
CYGFM05,2016-078A,2026-06-26T11:27:19.109664,15.57045201,.0008074,34.9552,199.0543,235.8683,124.1276,0,U,41884,999,53020,.27679E-3,.20719E-3,0
CYGFM04,2016-078B,2026-06-27T04:27:23.660064,15.62045393,.0007247,34.9305,161.5412,277.8232,82.1671,0,U,41885,999,53056,.35176E-3,.3194E-3,0
CYGFM02,2016-078C,2026-06-27T05:32:16.925280,15.65132330,.0008208,34.9386,155.4782,280.5423,79.4379,0,U,41886,999,53074,.36546E-3,.37538E-3,0
CYGFM01,2016-078D,2026-06-26T09:32:53.515104,15.57732603,.0007851,34.9382,200.5628,229.8106,130.1932,0,U,41887,999,53014,.30491E-3,.23434E-3,0
CYGFM08,2016-078E,2026-06-27T04:09:11.708352,15.60506659,.0009153,34.9410,174.7324,264.3406,95.6276,0,U,41888,999,53053,.33832E-3,.28947E-3,0
CYGFM07,2016-078G,2026-06-26T16:24:40.016736,15.60577907,.00076925,34.9428,166.3245,273.4338,86.5507,0,U,41890,999,53048,.31807455E-3,.27265E-3,0
CYGFM03,2016-078H,2026-06-27T03:59:54.426624,15.60599800,.0007338,34.9381,165.0423,266.5166,93.4720,0,U,41891,999,53053,.32927E-3,.2825E-3,0
